{"type": "FeatureCollection", "features": [ {"type": "Feature", "properties": {"norad_id": 31225, "name": "FENGYUN 1C DEB", "group": "fengyun-1c-debris", "lat": 19.844795754258516, "lon": 64.91089654348349, "alt_km": 793.2926377773101, "timestamp": "2025-12-20T20:38:44.723816+00:00", "meta": {"OBJECT_NAME": "FENGYUN 1C DEB", "OBJECT_ID": "1999-025BLF", "EPOCH": "2025-12-19T16:29:16.351584", "MEAN_MOTION": 14.17891698, "ECCENTRICITY": 0.00881116, "INCLINATION": 98.9898, "RA_OF_ASC_NODE": 66.9987, "ARG_OF_PERICENTER": 331.2337, "MEAN_ANOMALY": 182.7862, "EPHEMERIS_TYPE": 0, "CLASSIFICATION_TYPE": "U", "NORAD_CAT_ID": 31225, "ELEMENT_SET_NO": 999, "REV_AT_EPOCH": 95920, "BSTAR": 0.0009378056, "MEAN_MOTION_DOT": 1.945e-05, "MEAN_MOTION_DDOT": 0}, "tle": {"line1": "1 31225U 99025BLF 25353.68699481  .00001945  00000+0  93781-3 0  9996", "line2": "2 31225  98.9898  66.9987 0088111 331.2337 182.7862 14.17891698959205"}}, "geometry": {"type": "Point", "coordinates": [64.91089654348349, 19.844795754258516]}}, {"type": "Feature", "properties": {"norad_id": 31226, "name": "FENGYUN 1C DEB", "group": "fengyun-1c-debris", "lat": 75.08511413280736, "lon": -39.15695519994855, "alt_km": 801.5065280850222, "timestamp": "2025-12-20T20:38:44.723826+00:00", "meta": {"OBJECT_NAME": "FENGYUN 1C DEB", "OBJECT_ID": "1999-025BLG", "EPOCH": "2025-12-17T06:26:05.828928", "MEAN_MOTION": 14.2670123, "ECCENTRICITY": 0.01270359, "INCLINATION": 98.3503, "RA_OF_ASC_NODE": 350.8791, "ARG_OF_PERICENTER": 182.6246, "MEAN_ANOMALY": 177.4284, "EPHEMERIS_TYPE": 0, "CLASSIFICATION_TYPE": "U", "NORAD_CAT_ID": 31226, "ELEMENT_SET_NO": 999, "REV_AT_EPOCH": 62118, "BSTAR": 0.0003027873, "MEAN_MOTION_DOT": 7.56e-06, "MEAN_MOTION_DDOT": 0}, "tle": {"line1": "1 31226U 99025BLG 25351.26812302  .00000756  00000+0  30279-3 0  9990", "line2": "2 31226  98.3503 350.8791 0127035 182.6246 177.4284 14.26701230621181"}}, "geometry": {"type": "Point", "coordinates": [-39.15695519994855, 75.08511413280736]}}, {"type": "Feature", "properties": {"norad_id": 31228, "name": "FENGYUN 1C DEB", "group": "fengyun-1c-debris", "lat": 9.628735788460538, "lon": -94.59407015142135, "alt_km": 735.3720535882258, "timestamp": "2025-12-20T20:38:44.723836+00:00", "meta": {"OBJECT_NAME": "FENGYUN 1C DEB", "OBJECT_ID": "1999-025BLJ", "EPOCH": "2025-12-20T13:03:36.215424", "MEAN_MOTION": 14.36941451, "ECCENTRICITY": 0.00793657, "INCLINATION": 98.8698, "RA_OF_ASC_NODE": 266.5984, "ARG_OF_PERICENTER": 63.2611, "MEAN_ANOMALY": 113.2201, "EPHEMERIS_TYPE": 0, "CLASSIFICATION_TYPE": "U", "NORAD_CAT_ID": 31228, "ELEMENT_SET_NO": 999, "REV_AT_EPOCH": 97681, "BSTAR": 0.00036049177, "MEAN_MOTION_DOT": 1.059e-05, "MEAN_MOTION_DDOT": 0}, "tle": {"line1": "1 31228U 99025BLJ 25354.54416916  .00001059  00000+0  36049-3 0  9995", "line2": "2 31228  98.8698 266.5984 0079365  63.2611 113.2201 14.36941451976814"}}, "geometry": {"type": "Point", "coordinates": [-94.59407015142135, 9.628735788460538]}}, {"type": "Feature", "properties": {"norad_id": 31229, "name": "FENGYUN 1C DEB", "group": "fengyun-1c-debris", "lat": 80.55406387486065, "lon": 0.4261741403908648, "alt_km": 850.0164504380946, "timestamp": "2025-12-20T20:38:44.723847+00:00", "meta": {"OBJECT_NAME": "FENGYUN 1C DEB", "OBJECT_ID": "1999-025BLK", "EPOCH": "2025-12-19T15:31:33.131136", "MEAN_MOTION": 14.21859273, "ECCENTRICITY": 0.0053681, "INCLINATION": 98.8681, "RA_OF_ASC_NODE": 68.9923, "ARG_OF_PERICENTER": 276.5449, "MEAN_ANOMALY": 82.9618, "EPHEMERIS_TYPE": 0, "CLASSIFICATION_TYPE": "U", "NORAD_CAT_ID": 31229, "ELEMENT_SET_NO": 999, "REV_AT_EPOCH": 96182, "BSTAR": 0.0010763, "MEAN_MOTION_DOT": 2.361e-05, "MEAN_MOTION_DDOT": 0}, "tle": {"line1": "1 31229U 99025BLK 25353.64691124  .00002361  00000+0  10763-2 0  9993", "line2": "2 31229  98.8681  68.9923 0053681 276.5449  82.9618 14.21859273961828"}}, "geometry": {"type": "Point", "coordinates": [0.4261741403908648, 80.55406387486065]}}, {"type": "Feature", "properties": {"norad_id": 31231, "name": "FENGYUN 1C DEB", "group": "fengyun-1c-debris", "lat": -55.814788118577034, "lon": -38.499021285459904, "alt_km": 742.1473247813083, "timestamp": "2025-12-20T20:38:44.723857+00:00", "meta": {"OBJECT_NAME": "FENGYUN 1C DEB", "OBJECT_ID": "1999-025BLM", "EPOCH": "2025-12-19T04:32:10.061376", "MEAN_MOTION": 14.75858565, "ECCENTRICITY": 0.0145163, "INCLINATION": 98.8602, "RA_OF_ASC_NODE": 152.9469, "ARG_OF_PERICENTER": 86.0097, "MEAN_ANOMALY": 275.7689, "EPHEMERIS_TYPE": 0, "CLASSIFICATION_TYPE": "U", "NORAD_CAT_ID": 31231, "ELEMENT_SET_NO": 999, "REV_AT_EPOCH": 63116, "BSTAR": 0.0017223, "MEAN_MOTION_DOT": 0.00014002, "MEAN_MOTION_DDOT": 0}, "tle": {"line1": "1 31231U 99025BLM 25353.18900534  .00014002  00000+0  17223-2 0  9996", "line2": "2 31231  98.8602 152.9469 0145163  86.0097 275.7689 14.75858565631166"}}, "geometry": {"type": "Point", "coordinates": [-38.499021285459904, -55.814788118577034]}}, {"type": "Feature", "properties": {"norad_id": 31234, "name": "FENGYUN 1C DEB", "group": "fengyun-1c-debris", "lat": 8.362005188218609, "lon": -12.655462996471256, "alt_km": 919.0734652042793, "timestamp": "2025-12-20T20:38:44.723868+00:00", "meta": {"OBJECT_NAME": "FENGYUN 1C DEB", "OBJECT_ID": "1999-025BLQ", "EPOCH": "2025-12-17T05:37:32.355264", "MEAN_MOTION": 14.08020495, "ECCENTRICITY": 0.00732639, "INCLINATION": 98.7843, "RA_OF_ASC_NODE": 345.1186, "ARG_OF_PERICENTER": 214.0542, "MEAN_ANOMALY": 145.5915, "EPHEMERIS_TYPE": 0, "CLASSIFICATION_TYPE": "U", "NORAD_CAT_ID": 31234, "ELEMENT_SET_NO": 999, "REV_AT_EPOCH": 72783, "BSTAR": 0.0001535591, "MEAN_MOTION_DOT": 2.25e-06, "MEAN_MOTION_DDOT": 0}, "tle": {"line1": "1 31234U 99025BLQ 25351.23440226  .00000225  00000+0  15356-3 0  9998", "line2": "2 31234  98.7843 345.1186 0073263 214.0542 145.5915 14.08020495727831"}}, "geometry": {"type": "Point", "coordinates": [-12.655462996471256, 8.362005188218609]}}, {"type": "Feature", "properties": {"norad_id": 31235, "name": "FENGYUN 1C DEB", "group": "fengyun-1c-debris", "lat": -57.93270752112961, "lon": 156.521618715842, "alt_km": 765.0973953580587, "timestamp": "2025-12-20T20:38:44.723878+00:00", "meta": {"OBJECT_NAME": "FENGYUN 1C DEB", "OBJECT_ID": "1999-025BLR", "EPOCH": "2025-12-17T03:12:21.896928", "MEAN_MOTION": 14.18676374, "ECCENTRICITY": 0.01797032, "INCLINATION": 98.4672, "RA_OF_ASC_NODE": 139.2065, "ARG_OF_PERICENTER": 9.163, "MEAN_ANOMALY": 351.2754, "EPHEMERIS_TYPE": 0, "CLASSIFICATION_TYPE": "U", "NORAD_CAT_ID": 31235, "ELEMENT_SET_NO": 999, "REV_AT_EPOCH": 63229, "BSTAR": 0.0023921437, "MEAN_MOTION_DOT": 5.786e-05, "MEAN_MOTION_DDOT": 0}, "tle": {"line1": "1 31235U 99025BLR 25351.13358677  .00005786  00000+0  23921-2 0  9999", "line2": "2 31235  98.4672 139.2065 0179703   9.1630 351.2754 14.18676374632290"}}, "geometry": {"type": "Point", "coordinates": [156.521618715842, -57.93270752112961]}}, {"type": "Feature", "properties": {"norad_id": 31236, "name": "FENGYUN 1C DEB", "group": "fengyun-1c-debris", "lat": -64.11270359603755, "lon": -32.56591415853303, "alt_km": 942.7686193088857, "timestamp": "2025-12-20T20:38:44.723888+00:00", "meta": {"OBJECT_NAME": "FENGYUN 1C DEB", "OBJECT_ID": "1999-025BLS", "EPOCH": "2025-12-17T14:59:05.453088", "MEAN_MOTION": 13.85915823, "ECCENTRICITY": 0.03148984, "INCLINATION": 98.5449, "RA_OF_ASC_NODE": 306.4287, "ARG_OF_PERICENTER": 33.45, "MEAN_ANOMALY": 328.612, "EPHEMERIS_TYPE": 0, "CLASSIFICATION_TYPE": "U", "NORAD_CAT_ID": 31236, "ELEMENT_SET_NO": 999, "REV_AT_EPOCH": 61092, "BSTAR": 0.0042154512, "MEAN_MOTION_DOT": 7.112e-05, "MEAN_MOTION_DDOT": 0}, "tle": {"line1": "1 31236U 99025BLS 25351.62436867  .00007112  00000+0  42155-2 0  9997", "line2": "2 31236  98.5449 306.4287 0314898  33.4500 328.6120 13.85915823610929"}}, "geometry": {"type": "Point", "coordinates": [-32.56591415853303, -64.11270359603755]}}, {"type": "Feature", "properties": {"norad_id": 31237, "name": "FENGYUN 1C DEB", "group": "fengyun-1c-debris", "lat": 63.084448508601405, "lon": -169.45854968929305, "alt_km": 836.0662943018515, "timestamp": "2025-12-20T20:38:44.723898+00:00", "meta": {"OBJECT_NAME": "FENGYUN 1C DEB", "OBJECT_ID": "1999-025BLT", "EPOCH": "2025-12-20T06:41:10.704768", "MEAN_MOTION": 14.31411651, "ECCENTRICITY": 0.00885751, "INCLINATION": 98.4534, "RA_OF_ASC_NODE": 352.9414, "ARG_OF_PERICENTER": 326.6082, "MEAN_ANOMALY": 32.9534, "EPHEMERIS_TYPE": 0, "CLASSIFICATION_TYPE": "U", "NORAD_CAT_ID": 31237, "ELEMENT_SET_NO": 999, "REV_AT_EPOCH": 97374, "BSTAR": 0.00040991472, "MEAN_MOTION_DOT": 1.092e-05, "MEAN_MOTION_DDOT": 0}, "tle": {"line1": "1 31237U 99025BLT 25354.27859612  .00001092  00000+0  40991-3 0  9997", "line2": "2 31237  98.4534 352.9414 0088575 326.6082  32.9534 14.31411651973742"}}, "geometry": {"type": "Point", "coordinates": [-169.45854968929305, 63.084448508601405]}}, {"type": "Feature", "properties": {"norad_id": 31239, "name": "FENGYUN 1C DEB", "group": "fengyun-1c-debris", "lat": 38.872506682018155, "lon": -17.55464493202297, "alt_km": 882.3506977713005, "timestamp": "2025-12-20T20:38:44.723909+00:00", "meta": {"OBJECT_NAME": "FENGYUN 1C DEB", "OBJECT_ID": "1999-025BLV", "EPOCH": "2025-12-20T10:58:17.527584", "MEAN_MOTION": 14.0987113, "ECCENTRICITY": 0.00496696, "INCLINATION": 98.7581, "RA_OF_ASC_NODE": 349.1915, "ARG_OF_PERICENTER": 176.084, "MEAN_ANOMALY": 339.0502, "EPHEMERIS_TYPE": 0, "CLASSIFICATION_TYPE": "U", "NORAD_CAT_ID": 31239, "ELEMENT_SET_NO": 999, "REV_AT_EPOCH": 96120, "BSTAR": 0.00032343145, "MEAN_MOTION_DOT": 5.33e-06, "MEAN_MOTION_DDOT": 0}, "tle": {"line1": "1 31239U 99025BLV 25354.45714731  .00000533  00000+0  32343-3 0  9992", "line2": "2 31239  98.7581 349.1915 0049669 176.0840 339.0502 14.09871130961204"}}, "geometry": {"type": "Point", "coordinates": [-17.55464493202297, 38.872506682018155]}}]}